[
    {
        "Altitude(m)": 716660.6669066116,
        "Argument of Periapsis(deg)": 0.005695060593313534,
        "Eccentricity": 0.0,
        "Inclination(deg)": 45.0,
        "Latitude(deg)": -42.191573851493445,
        "Longitude(deg)": 53.99985418408893,
        "Mean Anomaly(deg)": -108.77889167625955,
        "RAAN(deg)": 269.9946240292709,
        "Satellite Name": "Constellation 1 1203",
        "Satellite Number": 1203,
        "Semi-Major Axis(m)": 7083131.272910544,
        "Time(s)": 95
    },
    {
        "Altitude(m)": 716668.3374792581,
        "Argument of Periapsis(deg)": 0.00575500859955894,
        "Eccentricity": 0.0,
        "Inclination(deg)": 45.0,
        "Latitude(deg)": -42.21010834113346,
        "Longitude(deg)": 54.0733958093118,
        "Mean Anomaly(deg)": -108.71819053600971,
        "RAAN(deg)": 269.99456744010536,
        "Satellite Name": "Constellation 1 1203",
        "Satellite Number": 1203,
        "Semi-Major Axis(m)": 7083131.272910544,
        "Time(s)": 96
    },
    {
        "Altitude(m)": 716675.9861208593,
        "Argument of Periapsis(deg)": 0.005814956605804345,
        "Eccentricity": 0.0,
        "Inclination(deg)": 45.0,
        "Latitude(deg)": -42.2285901779988,
        "Longitude(deg)": 54.14698284241306,
        "Mean Anomaly(deg)": -108.65748939575977,
        "RAAN(deg)": 269.9945108509398,
        "Satellite Name": "Constellation 1 1203",
        "Satellite Number": 1203,
        "Semi-Major Axis(m)": 7083131.272910544,
        "Time(s)": 97
    },
    {
        "Altitude(m)": 716683.6128033245,
        "Argument of Periapsis(deg)": 0.00587490461204975,
        "Eccentricity": 0.0,
        "Inclination(deg)": 45.0,
        "Latitude(deg)": -42.24701929815232,
        "Longitude(deg)": 54.220615042213915,
        "Mean Anomaly(deg)": -108.59678825550994,
        "RAAN(deg)": 269.9944542617742,
        "Satellite Name": "Constellation 1 1203",
        "Satellite Number": 1203,
        "Semi-Major Axis(m)": 7083131.272910544,
        "Time(s)": 98
    },
    {
        "Altitude(m)": 716691.2174986415,
        "Argument of Periapsis(deg)": 0.005934852618295156,
        "Eccentricity": 0.0,
        "Inclination(deg)": 45.0,
        "Latitude(deg)": -42.265395637743474,
        "Longitude(deg)": 54.29429233508331,
        "Mean Anomaly(deg)": -108.53608711526002,
        "RAAN(deg)": 269.9943976726086,
        "Satellite Name": "Constellation 1 1203",
        "Satellite Number": 1203,
        "Semi-Major Axis(m)": 7083131.272910544,
        "Time(s)": 99
    },
    {
        "Altitude(m)": 716698.8001788849,
        "Argument of Periapsis(deg)": 0.005994800624540561,
        "Eccentricity": 0.0,
        "Inclination(deg)": 45.0,
        "Latitude(deg)": -42.283719133009136,
        "Longitude(deg)": 54.36801464684032,
        "Mean Anomaly(deg)": -108.47538597501004,
        "RAAN(deg)": 269.99434108344303,
        "Satellite Name": "Constellation 1 1203",
        "Satellite Number": 1203,
        "Semi-Major Axis(m)": 7083131.272910544,
        "Time(s)": 100
    },
    {
        "Altitude(m)": 716706.3608162056,
        "Argument of Periapsis(deg)": 0.006054748630785968,
        "Eccentricity": 0.0,
        "Inclination(deg)": 45.0,
        "Latitude(deg)": -42.3019897202745,
        "Longitude(deg)": 54.44178190275316,
        "Mean Anomaly(deg)": -108.41468483476021,
        "RAAN(deg)": 269.9942844942775,
        "Satellite Name": "Constellation 1 1203",
        "Satellite Number": 1203,
        "Semi-Major Axis(m)": 7083131.272910544,
        "Time(s)": 101
    },
    {
        "Altitude(m)": 716713.8993828287,
        "Argument of Periapsis(deg)": 0.006114696637031373,
        "Eccentricity": 0.0,
        "Inclination(deg)": 45.0,
        "Latitude(deg)": -42.320207335954066,
        "Longitude(deg)": 54.515594027539656,
        "Mean Anomaly(deg)": -108.35398369451036,
        "RAAN(deg)": 269.9942279051119,
        "Satellite Name": "Constellation 1 1203",
        "Satellite Number": 1203,
        "Semi-Major Axis(m)": 7083131.272910544,
        "Time(s)": 102
    },
    {
        "Altitude(m)": 716721.4158510712,
        "Argument of Periapsis(deg)": 0.006174644643276778,
        "Eccentricity": 0.0,
        "Inclination(deg)": 45.0,
        "Latitude(deg)": -42.3383719165524,
        "Longitude(deg)": 54.58945094536639,
        "Mean Anomaly(deg)": -108.2932825542604,
        "RAAN(deg)": 269.99417131594635,
        "Satellite Name": "Constellation 1 1203",
        "Satellite Number": 1203,
        "Semi-Major Axis(m)": 7083131.272910544,
        "Time(s)": 103
    },
    {
        "Altitude(m)": 716728.9101933179,
        "Argument of Periapsis(deg)": 0.006234592649522184,
        "Eccentricity": 0.0,
        "Inclination(deg)": 45.0,
        "Latitude(deg)": -42.356483398665105,
        "Longitude(deg)": 54.66335241175081,
        "Mean Anomaly(deg)": -108.2325814140105,
        "RAAN(deg)": 269.99411472678077,
        "Satellite Name": "Constellation 1 1203",
        "Satellite Number": 1203,
        "Semi-Major Axis(m)": 7083131.272910544,
        "Time(s)": 104
    },
    {
        "Altitude(m)": 716736.3823820411,
        "Argument of Periapsis(deg)": 0.00629454065576759,
        "Eccentricity": 0.0,
        "Inclination(deg)": 45.0,
        "Latitude(deg)": -42.374541718979046,
        "Longitude(deg)": 54.737298685949426,
        "Mean Anomaly(deg)": -108.17188027376066,
        "RAAN(deg)": 269.9940581376152,
        "Satellite Name": "Constellation 1 1203",
        "Satellite Number": 1203,
        "Semi-Major Axis(m)": 7083131.272910544,
        "Time(s)": 105
    },
    {
        "Altitude(m)": 716743.8323897854,
        "Argument of Periapsis(deg)": 0.006354488662012995,
        "Eccentricity": 0.0,
        "Inclination(deg)": 45.0,
        "Latitude(deg)": -42.39254681427441,
        "Longitude(deg)": 54.81128952237562,
        "Mean Anomaly(deg)": -108.1111791335107,
        "RAAN(deg)": 269.9940015484496,
        "Satellite Name": "Constellation 1 1203",
        "Satellite Number": 1203,
        "Semi-Major Axis(m)": 7083131.272910544,
        "Time(s)": 106
    },
    {
        "Altitude(m)": 716751.2601891935,
        "Argument of Periapsis(deg)": 0.006414436668258401,
        "Eccentricity": 0.0,
        "Inclination(deg)": 45.0,
        "Latitude(deg)": -42.41049862142459,
        "Longitude(deg)": 54.88532484298646,
        "Mean Anomaly(deg)": -108.05047799326087,
        "RAAN(deg)": 269.9939449592841,
        "Satellite Name": "Constellation 1 1203",
        "Satellite Number": 1203,
        "Semi-Major Axis(m)": 7083131.272910544,
        "Time(s)": 107
    },
    {
        "Altitude(m)": 716758.665752963,
        "Argument of Periapsis(deg)": 0.0064743846745038075,
        "Eccentricity": 0.0,
        "Inclination(deg)": 45.0,
        "Latitude(deg)": -42.4283970773975,
        "Longitude(deg)": 54.95940456918621,
        "Mean Anomaly(deg)": -107.98977685301091,
        "RAAN(deg)": 269.9938883701185,
        "Satellite Name": "Constellation 1 1203",
        "Satellite Number": 1203,
        "Semi-Major Axis(m)": 7083131.272910544,
        "Time(s)": 108
    },
    {
        "Altitude(m)": 716766.0490538869,
        "Argument of Periapsis(deg)": 0.0065343326807492125,
        "Eccentricity": 0.0,
        "Inclination(deg)": 45.0,
        "Latitude(deg)": -42.44624211925621,
        "Longitude(deg)": 55.03352862182509,
        "Mean Anomaly(deg)": -107.92907571276105,
        "RAAN(deg)": 269.993831780953,
        "Satellite Name": "Constellation 1 1203",
        "Satellite Number": 1203,
        "Semi-Major Axis(m)": 7083131.272910544,
        "Time(s)": 109
    },
    {
        "Altitude(m)": 716773.4100648445,
        "Argument of Periapsis(deg)": 0.0065942806869946176,
        "Eccentricity": 0.0,
        "Inclination(deg)": 45.0,
        "Latitude(deg)": -42.46403368416004,
        "Longitude(deg)": 55.10769692119974,
        "Mean Anomaly(deg)": -107.86837457251116,
        "RAAN(deg)": 269.99377519178734,
        "Satellite Name": "Constellation 1 1203",
        "Satellite Number": 1203,
        "Semi-Major Axis(m)": 7083131.272910544,
        "Time(s)": 110
    },
    {
        "Altitude(m)": 716780.748758777,
        "Argument of Periapsis(deg)": 0.006654228693240024,
        "Eccentricity": 0.0,
        "Inclination(deg)": 45.0,
        "Latitude(deg)": -42.48177170936541,
        "Longitude(deg)": 55.181909218955724,
        "Mean Anomaly(deg)": -107.80767343226128,
        "RAAN(deg)": 269.99371860262175,
        "Satellite Name": "Constellation 1 1203",
        "Satellite Number": 1203,
        "Semi-Major Axis(m)": 7083131.272910544,
        "Time(s)": 111
    },
    {
        "Altitude(m)": 716788.0651087251,
        "Argument of Periapsis(deg)": 0.006714176699485429,
        "Eccentricity": 0.0,
        "Inclination(deg)": 45.0,
        "Latitude(deg)": -42.49945613222608,
        "Longitude(deg)": 55.25616577047446,
        "Mean Anomaly(deg)": -107.74697229201135,
        "RAAN(deg)": 269.99366201345623,
        "Satellite Name": "Constellation 1 1203",
        "Satellite Number": 1203,
        "Semi-Major Axis(m)": 7083131.272910544,
        "Time(s)": 112
    },
    {
        "Altitude(m)": 716795.3590878011,
        "Argument of Periapsis(deg)": 0.006774124705730835,
        "Eccentricity": 0.0,
        "Inclination(deg)": 45.0,
        "Latitude(deg)": -42.51708689019514,
        "Longitude(deg)": 55.33046632629202,
        "Mean Anomaly(deg)": -107.6862711517614,
        "RAAN(deg)": 269.99360542429065,
        "Satellite Name": "Constellation 1 1203",
        "Satellite Number": 1203,
        "Semi-Major Axis(m)": 7083131.272910544,
        "Time(s)": 113
    }
]